{
  "type": "FeatureCollection",
  "features": [
    {
      "type": "Feature",
      "properties": {
        "norad_id": 41948,
        "name": "CARTOSAT-2D",
        "group": "resource",
        "lat": -11.565418531981301,
        "lon": -128.9979864942586,
        "alt_km": 510.2343805621513,
        "timestamp": "2025-12-21T03:56:50.512043+00:00",
        "meta_object_name": "CARTOSAT-2D",
        "meta_object_id": "2017-008A",
        "meta_epoch": "2025-12-20T20:47:04.881408",
        "meta_mean_motion": 15.19328139,
        "meta_eccentricity": 0.0005309,
        "meta_inclination": 97.4381,
        "meta_ra_of_asc_node": 52.2401,
        "meta_arg_of_pericenter": 137.4885,
        "meta_mean_anomaly": 222.6762,
        "meta_ephemeris_type": 0,
        "meta_classification_type": "U",
        "meta_norad_cat_id": 41948,
        "meta_element_set_no": 999,
        "meta_rev_at_epoch": 49050,
        "meta_bstar": 5.3469e-05,
        "meta_mean_motion_dot": 1.062e-05,
        "meta_mean_motion_ddot": 0,
        "tle_line1": "1 41948U 17008A   25354.86602872  .00001062  00000+0  53469-4 0  9999",
        "tle_line2": "2 41948  97.4381  52.2401 0005309 137.4885 222.6762 15.19328139490504"
      },
      "geometry": {
        "type": "Point",
        "coordinates": [
          -128.9979864942586,
          -11.565418531981301
        ]
      }
    },
    {
      "type": "Feature",
      "properties": {
        "norad_id": 42063,
        "name": "SENTINEL-2B",
        "group": "resource",
        "lat": -5.403997488553789,
        "lon": 68.3099371691953,
        "alt_km": 792.7239830997041,
        "timestamp": "2025-12-21T03:56:50.512052+00:00",
        "meta_object_name": "SENTINEL-2B",
        "meta_object_id": "2017-013A",
        "meta_epoch": "2025-12-20T19:34:52.358592",
        "meta_mean_motion": 14.30813817,
        "meta_eccentricity": 0.0001187,
        "meta_inclination": 98.5714,
        "meta_ra_of_asc_node": 67.1488,
        "meta_arg_of_pericenter": 92.5396,
        "meta_mean_anomaly": 267.5923,
        "meta_ephemeris_type": 0,
        "meta_classification_type": "U",
        "meta_norad_cat_id": 42063,
        "meta_element_set_no": 999,
        "meta_rev_at_epoch": 45913,
        "meta_bstar": 8.038e-05,
        "meta_mean_motion_dot": 1.67e-06,
        "meta_mean_motion_ddot": 0,
        "tle_line1": "1 42063U 17013A   25354.81588378  .00000167  00000+0  80380-4 0  9990",
        "tle_line2": "2 42063  98.5714  67.1488 0001187  92.5396 267.5923 14.30813817459138"
      },
      "geometry": {
        "type": "Point",
        "coordinates": [
          68.3099371691953,
          -5.403997488553789
        ]
      }
    },
    {
      "type": "Feature",
      "properties": {
        "norad_id": 42767,
        "name": "CARTOSAT-2E",
        "group": "resource",
        "lat": 77.15107971025608,
        "lon": -92.32307817441551,
        "alt_km": 500.9687927399309,
        "timestamp": "2025-12-21T03:56:50.512061+00:00",
        "meta_object_name": "CARTOSAT-2E",
        "meta_object_id": "2017-036C",
        "meta_epoch": "2025-12-20T21:11:01.450752",
        "meta_mean_motion": 15.19270221,
        "meta_eccentricity": 0.0002496,
        "meta_inclination": 97.455,
        "meta_ra_of_asc_node": 52.3631,
        "meta_arg_of_pericenter": 197.1012,
        "meta_mean_anomaly": 163.0139,
        "meta_ephemeris_type": 0,
        "meta_classification_type": "U",
        "meta_norad_cat_id": 42767,
        "meta_element_set_no": 999,
        "meta_rev_at_epoch": 47107,
        "meta_bstar": 9.9704e-05,
        "meta_mean_motion_dot": 2.034e-05,
        "meta_mean_motion_ddot": 0,
        "tle_line1": "1 42767U 17036C   25354.88265568  .00002034  00000+0  99704-4 0  9991",
        "tle_line2": "2 42767  97.4550  52.3631 0002496 197.1012 163.0139 15.19270221471072"
      },
      "geometry": {
        "type": "Point",
        "coordinates": [
          -92.32307817441551,
          77.15107971025608
        ]
      }
    },
    {
      "type": "Feature",
      "properties": {
        "norad_id": 42920,
        "name": "FORMOSAT-5",
        "group": "resource",
        "lat": -62.69823527143895,
        "lon": -126.99896480521127,
        "alt_km": 724.2323961893353,
        "timestamp": "2025-12-21T03:56:50.512070+00:00",
        "meta_object_name": "FORMOSAT-5",
        "meta_object_id": "2017-049A",
        "meta_epoch": "2025-12-20T18:32:58.850304",
        "meta_mean_motion": 14.50764798,
        "meta_eccentricity": 0.0009826,
        "meta_inclination": 98.2444,
        "meta_ra_of_asc_node": 68.9307,
        "meta_arg_of_pericenter": 274.1879,
        "meta_mean_anomaly": 85.8192,
        "meta_ephemeris_type": 0,
        "meta_classification_type": "U",
        "meta_norad_cat_id": 42920,
        "meta_element_set_no": 999,
        "meta_rev_at_epoch": 44080,
        "meta_bstar": 4.5526e-05,
        "meta_mean_motion_dot": 1.35e-06,
        "meta_mean_motion_ddot": 0,
        "tle_line1": "1 42920U 17049A   25354.77290336  .00000135  00000+0  45526-4 0  9998",
        "tle_line2": "2 42920  98.2444  68.9307 0009826 274.1879  85.8192 14.50764798440806"
      },
      "geometry": {
        "type": "Point",
        "coordinates": [
          -126.99896480521127,
          -62.69823527143895
        ]
      }
    },
    {
      "type": "Feature",
      "properties": {
        "norad_id": 42969,
        "name": "SENTINEL-5P",
        "group": "resource",
        "lat": 49.33981356351999,
        "lon": -76.69114440053734,
        "alt_km": 821.8978388265941,
        "timestamp": "2025-12-21T03:56:50.512079+00:00",
        "meta_object_name": "SENTINEL-5P",
        "meta_object_id": "2017-064A",
        "meta_epoch": "2025-12-20T19:15:13.275936",
        "meta_mean_motion": 14.19519279,
        "meta_eccentricity": 0.0001011,
        "meta_inclination": 98.7796,
        "meta_ra_of_asc_node": 293.3152,
        "meta_arg_of_pericenter": 90.8145,
        "meta_mean_anomaly": 269.3147,
        "meta_ephemeris_type": 0,
        "meta_classification_type": "U",
        "meta_norad_cat_id": 42969,
        "meta_element_set_no": 999,
        "meta_rev_at_epoch": 42425,
        "meta_bstar": 3.9816e-05,
        "meta_mean_motion_dot": 4e-07,
        "meta_mean_motion_ddot": 0,
        "tle_line1": "1 42969U 17064A   25354.80223699  .00000040  00000+0  39816-4 0  9990",
        "tle_line2": "2 42969  98.7796 293.3152 0001011  90.8145 269.3147 14.19519279424250"
      },
      "geometry": {
        "type": "Point",
        "coordinates": [
          -76.69114440053734,
          49.33981356351999
        ]
      }
    },
    {
      "type": "Feature",
      "properties": {
        "norad_id": 42987,
        "name": "SKYSAT-C11",
        "group": "resource",
        "lat": 79.54963281040965,
        "lon": 87.95008094024554,
        "alt_km": 415.11669155405434,
        "timestamp": "2025-12-21T03:56:50.512088+00:00",
        "meta_object_name": "SKYSAT-C11",
        "meta_object_id": "2017-068A",
        "meta_epoch": "2025-12-20T19:50:01.015296",
        "meta_mean_motion": 15.47764833,
        "meta_eccentricity": 0.000116,
        "meta_inclination": 97.4147,
        "meta_ra_of_asc_node": 132.5202,
        "meta_arg_of_pericenter": 98.9853,
        "meta_mean_anomaly": 261.1528,
        "meta_ephemeris_type": 0,
        "meta_classification_type": "U",
        "meta_norad_cat_id": 42987,
        "meta_element_set_no": 999,
        "meta_rev_at_epoch": 45556,
        "meta_bstar": 0.00029892,
        "meta_mean_motion_dot": 0.00015411,
        "meta_mean_motion_ddot": 0,
        "tle_line1": "1 42987U 17068A   25354.82640064  .00015411  00000+0  29892-3 0  9995",
        "tle_line2": "2 42987  97.4147 132.5202 0001160  98.9853 261.1528 15.47764833455567"
      },
      "geometry": {
        "type": "Point",
        "coordinates": [
          87.95008094024554,
          79.54963281040965
        ]
      }
    },
    {
      "type": "Feature",
      "properties": {
        "norad_id": 42988,
        "name": "SKYSAT-C10",
        "group": "resource",
        "lat": 53.8582922091659,
        "lon": 115.75097502071982,
        "alt_km": 460.81325066499085,
        "timestamp": "2025-12-21T03:56:50.512097+00:00",
        "meta_object_name": "SKYSAT-C10",
        "meta_object_id": "2017-068B",
        "meta_epoch": "2025-12-20T19:52:24.775392",
        "meta_mean_motion": 15.32220775,
        "meta_eccentricity": 0.0005395,
        "meta_inclination": 97.4266,
        "meta_ra_of_asc_node": 125.7022,
        "meta_arg_of_pericenter": 81.4616,
        "meta_mean_anomaly": 278.7237,
        "meta_ephemeris_type": 0,
        "meta_classification_type": "U",
        "meta_norad_cat_id": 42988,
        "meta_element_set_no": 999,
        "meta_rev_at_epoch": 45503,
        "meta_bstar": 0.00023671,
        "meta_mean_motion_dot": 7.288e-05,
        "meta_mean_motion_ddot": 0,
        "tle_line1": "1 42988U 17068B   25354.82806453  .00007288  00000+0  23671-3 0  9994",
        "tle_line2": "2 42988  97.4266 125.7022 0005395  81.4616 278.7237 15.32220775455031"
      },
      "geometry": {
        "type": "Point",
        "coordinates": [
          115.75097502071982,
          53.8582922091659
        ]
      }
    }
  ]
}